[{"OBJECT_NAME":"STARLINK-31491","OBJECT_ID":"2024-036P","EPOCH":"2026-03-09T06:28:46.954560","MEAN_MOTION":15.30188703,"ECCENTRICITY":0.00012684,"INCLINATION":53.1605,"RA_OF_ASC_NODE":80.4539,"ARG_OF_PERICENTER":93.1729,"MEAN_ANOMALY":266.9417,"EPHEMERIS_TYPE":0,"CLASSIFICATION_TYPE":"U","NORAD_CAT_ID":59011,"ELEMENT_SET_NO":999,"REV_AT_EPOCH":11525,"BSTAR":4.0748234e-5,"MEAN_MOTION_DOT":8.47e-6,"MEAN_MOTION_DDOT":0},{"OBJECT_NAME":"CZ-6A DEB","OBJECT_ID":"2024-140ADS","EPOCH":"2026-03-09T14:05:09.302208","MEAN_MOTION":15.17885306,"ECCENTRICITY":0.0073653,"INCLINATION":89.0442,"RA_OF_ASC_NODE":281.8925,"ARG_OF_PERICENTER":121.24,"MEAN_ANOMALY":239.6089,"EPHEMERIS_TYPE":0,"CLASSIFICATION_TYPE":"U","NORAD_CAT_ID":64628,"ELEMENT_SET_NO":999,"REV_AT_EPOCH":8034,"BSTAR":0.0029018,"MEAN_MOTION_DOT":0.00063537,"MEAN_MOTION_DDOT":0}]
